STARLINK-31000          
1 58488U 23186R   26068.41197094  .00000553  00000+0  29611-4 0  9995
2 58488  43.0013  65.2185 0000863 279.8571  80.2183 15.27580413125847
TRANSPORTER-13 OBJECT AH
1 63241U 25052AH  26068.64880921  .00014108  00000+0  55931-3 0  9999
2 63241  97.3962 323.1443 0008070 138.7508 221.4341 15.25468797 54753
